{
    "links": {
        "self": "http://www.neowsapp.com/rest/v1/neo/3478650?api_key=iIulBulltgU6a56xZRHN4H3l9WmuAYTsLGpBGhQ2"
    },
    "id": "3478650",
    "neo_reference_id": "3478650",
    "name": "(2009 WZ53)",
    "designation": "2009 WZ53",
    "nasa_jpl_url": "http://ssd.jpl.nasa.gov/sbdb.cgi?sstr=3478650",
    "absolute_magnitude_h": 24.2,
    "estimated_diameter": {
        "kilometers": {
            "estimated_diameter_min": 0.0384197891,
            "estimated_diameter_max": 0.0859092601
        },
        "meters": {
            "estimated_diameter_min": 38.4197891064,
            "estimated_diameter_max": 85.9092601232
        },
        "miles": {
            "estimated_diameter_min": 0.0238729428,
            "estimated_diameter_max": 0.0533815229
        },
        "feet": {
            "estimated_diameter_min": 126.0491808919,
            "estimated_diameter_max": 281.8545369825
        }
    },
    "is_potentially_hazardous_asteroid": false,
    "close_approach_data": [
        {
            "close_approach_date": "1901-11-29",
            "close_approach_date_full": "1901-Nov-29 15:30",
            "epoch_date_close_approach": -2148712200000,
            "relative_velocity": {
                "kilometers_per_second": "18.6840854485",
                "kilometers_per_hour": "67262.7076146022",
                "miles_per_hour": "41794.430739751"
            },
            "miss_distance": {
                "astronomical": "0.1943499029",
                "lunar": "75.6021122281",
                "kilometers": "29074331.508546823",
                "miles": "18065951.8700912374"
            },
            "orbiting_body": "Earth"
        },
        {
            "close_approach_date": "2009-11-29",
            "close_approach_date_full": "2009-Nov-29 13:57",
            "epoch_date_close_approach": 1259503020000,
            "relative_velocity": {
                "kilometers_per_second": "16.9942819779",
                "kilometers_per_hour": "61179.4151203111",
                "miles_per_hour": "38014.5093562844"
            },
            "miss_distance": {
                "astronomical": "0.1823292447",
                "lunar": "70.9260761883",
                "kilometers": "27276066.645828789",
                "miles": "16948561.8984597282"
            },
            "orbiting_body": "Earth"
        },
        {
            "close_approach_date": "2010-05-07",
            "close_approach_date_full": "2010-May-07 06:31",
            "epoch_date_close_approach": 1273213860000,
            "relative_velocity": {
                "kilometers_per_second": "17.5395378012",
                "kilometers_per_hour": "63142.3360844212",
                "miles_per_hour": "39234.1921075671"
            },
            "miss_distance": {
                "astronomical": "0.3445204743",
                "lunar": "134.0184645027",
                "kilometers": "51539529.126669741",
                "miles": "32025178.3720587858"
            },
            "orbiting_body": "Earth"
        }
    ],
    "orbital_data": {
        "orbit_id": "7",
        "orbit_determination_date": "2017-04-06 08:58:57",
        "first_observation_date": "2009-11-23",
        "last_observation_date": "2009-11-26",
        "data_arc_in_days": 3,
        "observations_used": 22,
        "orbit_uncertainty": "9",
        "minimum_orbit_intersection": ".0264734",
        "jupiter_tisserand_invariant": "5.335",
        "epoch_osculation": "2455160.5",
        "eccentricity": ".2422788975278542",
        "semi_major_axis": "1.138046878390377",
        "inclination": "32.75863697898168",
        "ascending_node_longitude": "61.58332488829119",
        "orbital_period": "443.443868902109",
        "perihelion_distance": ".8623221353589402",
        "perihelion_argument": "111.4364675580997",
        "aphelion_distance": "1.413771621421813",
        "perihelion_time": "2455263.848194385021",
        "mean_anomaly": "276.0990768217821",
        "mean_motion": ".8118276635356314",
        "equinox": "J2000",
        "orbit_class": {
            "orbit_class_type": "APO",
            "orbit_class_description": "Near-Earth asteroid orbits which cross the Earth’s orbit similar to that of 1862 Apollo",
            "orbit_class_range": "a (semi-major axis) > 1.0 AU; q (perihelion) < 1.017 AU"
        }
    },
    "is_sentry_object": false
}